NORAD_CAT_ID,OBJECT_NAME,OBJECT_TYPE,EPOCH,MEAN_MOTION,ECCENTRICITY,INCLINATION,RA_OF_ASC_NODE,ARG_OF_PERICENTER,MEAN_ANOMALY,BSTAR,MEAN_MOTION_DOT,MEAN_MOTION_DDOT,TLE_LINE0,TLE_LINE1,TLE_LINE2,SEMIMAJOR_AXIS,PERIOD,APOGEE,PERIGEE,DECAYED
54766.0,STARLINK-5471,PAYLOAD,2023-12-13 13:58:23,15.08841639,0.0001329,53.217,112.2519,88.7892,271.3253,5.9886e-05,6.65e-06,0.0,0 STARLINK-5471,1 54766U 22175J   23347.58221615  .00000665  00000-0  59886-4 0  9991,2 54766  53.2170 112.2519 0001329  88.7892 271.3253 15.08841639 56566,6917.875,95.437,540.66,538.821,0.0
54766.0,STARLINK-5471,PAYLOAD,2023-12-14 12:13:47,15.08838087,0.0001267,53.2166,108.0885,89.5527,270.561,1.626e-05,-2.9e-07,0.0,0 STARLINK-5471,1 54766U 22175J   23348.50958121 -.00000029  00000-0  16260-4 0  9997,2 54766  53.2166 108.0885 0001267  89.5527 270.5610 15.08838087 54542,6917.886,95.438,540.628,538.875,0.0
54766.0,STARLINK-5471,PAYLOAD,2023-12-15 13:39:58,15.08838971,0.0001264,53.217,103.3297,98.2652,261.8484,-9.2099e-05,-1.753e-05,0.0,0 STARLINK-5471,1 54766U 22175J   23349.56942723 -.00001753  00000-0 -92099-4 0  9995,2 54766  53.2170 103.3297 0001264  98.2652 261.8484 15.08838971 56866,6917.884,95.438,540.623,538.874,0.0
54766.0,STARLINK-5471,PAYLOAD,2023-12-15 15:15:22,15.08793082,0.0001538,53.217,103.0327,98.3128,261.8039,0.00050133,7.69e-05,0.0,0 STARLINK-5471,1 54766U 22175J   23349.63567449  .00007690  00000-0  50133-3 0  9997,2 54766  53.2170 103.0327 0001538  98.3128 261.8039 15.08793082 54711,6918.024,95.441,540.953,538.825,0.0
54766.0,STARLINK-5471,PAYLOAD,2023-12-16 11:55:21,15.08841046,0.0001256,53.217,99.1672,97.0915,263.022,0.00010189,1.334e-05,0.0,0 STARLINK-5471,1 54766U 22175J   23350.49678120  .00001334  00000-0  10189-3 0  9998,2 54766  53.2170  99.1672 0001256  97.0915 263.0220 15.08841046 54840,6917.877,95.437,540.611,538.873,0.0
54766.0,STARLINK-5471,PAYLOAD,2023-12-16 13:30:44,15.0884332,0.0001275,53.2163,98.871,99.1365,260.9772,0.00012241,1.661e-05,0.0,0 STARLINK-5471,1 54766U 22175J   23350.56301946  .00001661  00000-0  12241-3 0  9999,2 54766  53.2163  98.8710 0001275  99.1365 260.9772 15.08843320 57011,6917.87,95.437,540.617,538.853,0.0
54766.0,STARLINK-5471,PAYLOAD,2023-12-16 15:06:07,15.08846909,0.0001301,53.2171,98.5725,91.0891,269.025,0.00014956,2.094e-05,0.0,0 STARLINK-5471,1 54766U 22175J   23350.62925685  .00002094  00000-0  14956-3 0  9994,2 54766  53.2171  98.5725 0001301  91.0891 269.0250 15.08846909 57026,6917.859,95.437,540.624,538.824,0.0
54766.0,STARLINK-5471,PAYLOAD,2023-12-17 11:46:09,15.08838098,0.0001271,53.2184,94.7039,100.629,259.4845,7.8749e-05,9.66e-06,0.0,0 STARLINK-5471,1 54766U 22175J   23351.49038476  .00000966  00000-0  78749-4 0  9990,2 54766  53.2184  94.7039 0001271 100.6290 259.4845 15.08838098 54998,6917.886,95.438,540.63,538.872,0.0
54766.0,STARLINK-5471,PAYLOAD,2023-12-17 13:21:32,15.08841351,0.000137,53.2166,94.411,85.0582,275.0566,0.00011991,1.621e-05,0.0,0 STARLINK-5471,1 54766U 22175J   23351.55662339  .00001621  00000-0  11991-3 0  9992,2 54766  53.2166  94.4110 0001370  85.0582 275.0566 15.08841351 57167,6917.876,95.437,540.689,538.794,0.0
54766.0,STARLINK-5471,PAYLOAD,2023-12-18 11:36:55,15.088506,0.0001232,53.2164,90.2491,76.3139,283.799,0.00010681,1.413e-05,0.0,0 STARLINK-5471,1 54766U 22175J   23352.48397579  .00001413  00000-0  10681-3 0  9990,2 54766  53.2164  90.2491 0001232  76.3139 283.7990 15.08850600 55149,6917.848,95.437,540.565,538.861,0.0
54766.0,STARLINK-5471,PAYLOAD,2023-12-18 13:12:18,15.08856872,0.0001445,53.2175,89.9501,62.822,297.292,6.6392e-05,7.69e-06,0.0,0 STARLINK-5471,1 54766U 22175J   23352.55021259  .00000769  00000-0  66392-4 0  9991,2 54766  53.2175  89.9501 0001445  62.8220 297.2920 15.08856872 57316,6917.829,95.436,540.693,538.694,0.0
54766.0,STARLINK-5471,PAYLOAD,2023-12-19 11:27:43,15.08841436,0.0001166,53.2167,85.7876,86.5465,273.566,1.2026e-05,-9.6e-07,0.0,0 STARLINK-5471,1 54766U 22175J   23353.47758235 -.00000096  00000-0  12026-4 0  9993,2 54766  53.2167  85.7876 0001166  86.5465 273.5660 15.08841436 55293,6917.876,95.437,540.548,538.934,0.0
54766.0,STARLINK-5471,PAYLOAD,2023-12-19 13:03:06,15.08841975,0.0001171,53.2169,85.4891,99.275,260.8375,9.3935e-06,-1.38e-06,0.0,0 STARLINK-5471,1 54766U 22175J   23353.54382132 -.00000138  00000-0  93935-5 0  9996,2 54766  53.2169  85.4891 0001171  99.2750 260.8375 15.08841975 57464,6917.874,95.437,540.549,538.929,0.0
54766.0,STARLINK-5471,PAYLOAD,2023-12-20 11:18:31,15.08834068,0.000122,53.2171,81.3267,78.2902,281.8227,-0.00011745,-2.156e-05,0.0,0 STARLINK-5471,1 54766U 22175J   23354.47119397 -.00002156  00000-0 -11745-3 0  9990,2 54766  53.2171  81.3267 0001220  78.2902 281.8227 15.08834068 55440,6917.899,95.438,540.608,538.92,0.0
54766.0,STARLINK-5471,PAYLOAD,2023-12-20 12:53:54,15.0883683,0.0001252,53.2178,81.0277,85.0664,275.0471,-0.00010116,-1.897e-05,0.0,0 STARLINK-5471,1 54766U 22175J   23354.53743070 -.00001897  00000-0 -10116-3 0  9990,2 54766  53.2178  81.0277 0001252  85.0664 275.0471 15.08836830 57617,6917.89,95.438,540.621,538.889,0.0
54766.0,STARLINK-5471,PAYLOAD,2023-12-21 11:09:18,15.08835841,0.0001235,53.2171,76.8677,78.7133,281.3998,9.6699e-05,1.251e-05,0.0,0 STARLINK-5471,1 54766U 22175J   23355.46479223  .00001251  00000-0  96699-4 0  9992,2 54766  53.2171  76.8677 0001235  78.7133 281.3998 15.08835841 55597,6917.893,95.438,540.612,538.904,0.0
54766.0,STARLINK-5471,PAYLOAD,2023-12-22 12:35:28,15.0882381,0.0001529,53.2182,72.1084,68.9071,291.2085,0.00046107,7.054e-05,0.0,0 STARLINK-5471,1 54766U 22175J   23356.52463729  .00007054  00000-0  46107-3 0  9999,2 54766  53.2182  72.1084 0001529  68.9071 291.2085 15.08823810 57916,6917.93,95.439,540.853,538.737,0.0
54766.0,STARLINK-5471,PAYLOAD,2023-12-23 04:29:19,15.0883738,0.0001678,53.2193,69.1435,58.9822,301.1335,0.00021277,3.1e-05,0.0,0 STARLINK-5471,1 54766U 22175J   23357.18703477  .00003100  00000-0  21277-3 0  9998,2 54766  53.2193  69.1435 0001678  58.9822 301.1335 15.08837380 55859,6917.888,95.438,540.914,538.593,0.0
54766.0,STARLINK-5471,PAYLOAD,2023-12-23 14:01:38,15.08849073,0.0001346,53.2175,67.3473,75.822,284.2921,0.00015535,2.186e-05,0.0,0 STARLINK-5471,1 54766U 22175J   23357.58446885  .00002186  00000-0  15535-3 0  9992,2 54766  53.2175  67.3473 0001346  75.8220 284.2921 15.08849073 58074,6917.853,95.437,540.649,538.787,0.0
54766.0,STARLINK-5471,PAYLOAD,2023-12-23 23:33:58,15.08838467,0.0001504,53.2176,65.5691,68.28,291.8352,-7.6395e-06,-4.1e-06,0.0,0 STARLINK-5471,1 54766U 22175J   23357.98192159 -.00000410  00000-0 -76395-5 0  9991,2 54766  53.2176  65.5691 0001504  68.2800 291.8352 15.08838467 55976,6917.885,95.438,540.791,538.71,0.0
54766.0,STARLINK-5471,PAYLOAD,2023-12-24 13:52:25,15.08852791,0.0001348,53.2175,62.8893,81.0975,279.017,9.1771e-05,1.173e-05,0.0,0 STARLINK-5471,1 54766U 22175J   23358.57806861  .00001173  00000-0  91771-4 0  9998,2 54766  53.2175  62.8893 0001348  81.0975 279.0170 15.08852791 58224,6917.841,95.437,540.639,538.774,0.0
54766.0,STARLINK-5471,PAYLOAD,2023-12-24 23:24:44,15.08838952,0.0001403,53.2175,61.1009,139.8018,220.3078,4.1848e-05,3.78e-06,0.0,0 STARLINK-5471,1 54766U 22175J   23358.97551361  .00000378  00000-0  41848-4 0  9990,2 54766  53.2175  61.1009 0001403 139.8018 220.3078 15.08838952 56123,6917.884,95.438,540.719,538.778,0.0
54766.0,STARLINK-5471,PAYLOAD,2023-12-25 10:32:26,15.08842725,0.0001776,53.2167,59.0266,75.3483,284.7706,0.0001347,1.856e-05,0.0,0 STARLINK-5471,1 54766U 22175J   23359.43919312  .00001856  00000-0  13470-3 0  9997,2 54766  53.2167  59.0266 0001776  75.3483 284.7706 15.08842725 56190,6917.872,95.437,540.966,538.508,0.0
54766.0,STARLINK-5471,PAYLOAD,2023-12-25 13:43:11,15.08854421,0.0001556,53.2168,58.4255,119.3327,240.7821,9.4231e-05,1.213e-05,0.0,0 STARLINK-5471,1 54766U 22175J   23359.57166284  .00001213  00000-0  94231-4 0  9996,2 54766  53.2168  58.4255 0001556 119.3327 240.7821 15.08854421 58372,6917.836,95.437,540.778,538.625,0.0
54766.0,STARLINK-5471,PAYLOAD,2023-12-25 23:15:31,15.08841566,0.0001351,53.2179,56.6439,100.9427,259.1717,-6.9789e-05,-1.398e-05,0.0,0 STARLINK-5471,1 54766U 22175J   23359.96911471 -.00001398  00000-0 -69789-4 0  9991,2 54766  53.2179  56.6439 0001351 100.9427 259.1717 15.08841566 56279,6917.876,95.437,540.675,538.806,0.0
54766.0,STARLINK-5471,PAYLOAD,2023-12-26 10:23:14,15.08832138,0.0001781,53.2172,54.5667,74.8234,285.2955,3.8269e-05,3.21e-06,0.0,0 STARLINK-5471,1 54766U 22175J   23360.43280421  .00000321  00000-0  38269-4 0  9991,2 54766  53.2172  54.5667 0001781  74.8234 285.2955 15.08832138 56341,6917.904,95.438,541.001,538.537,0.0
54766.0,STARLINK-5471,PAYLOAD,2023-12-26 13:33:59,15.08842532,0.0001464,53.2168,53.9661,95.7467,264.3692,-2.0682e-05,-6.17e-06,0.0,0 STARLINK-5471,1 54766U 22175J   23360.56527686 -.00000617  00000-0 -20682-4 0  9992,2 54766  53.2168  53.9661 0001464  95.7467 264.3692 15.08842532 58528,6917.873,95.437,540.75,538.725,0.0
54766.0,STARLINK-5471,PAYLOAD,2023-12-27 10:14:00,15.08848418,0.0001568,53.2169,50.1027,95.7927,264.3244,0.00010956,1.456e-05,0.0,0 STARLINK-5471,1 54766U 22175J   23361.42639109  .00001456  00000-0  10956-3 0  9994,2 54766  53.2169  50.1027 0001568  95.7927 264.3244 15.08848418 58656,6917.855,95.437,540.804,538.635,0.0
54766.0,STARLINK-5471,PAYLOAD,2023-12-28 03:43:15,15.088335,0.0001751,53.2192,46.8382,81.4847,278.6343,0.00013649,1.884e-05,0.0,0 STARLINK-5471,1 54766U 22175J   23362.15504131  .00001884  00000-0  13649-3 0  9998,2 54766  53.2192  46.8382 0001751  81.4847 278.6343 15.08833500 56602,6917.9,95.438,540.977,538.554,0.0
54766.0,STARLINK-5471,PAYLOAD,2023-12-28 10:04:48,15.08835026,0.0001714,53.2191,45.6468,91.59,268.5289,0.00012987,1.779e-05,0.0,0 STARLINK-5471,1 54766U 22175J   23362.42000022  .00001779  00000-0  12987-3 0  9995,2 54766  53.2191  45.6468 0001714  91.5900 268.5289 15.08835026 58800,6917.896,95.438,540.946,538.575,0.0
